[{"OBJECT_NAME":"A-SEANSAT-PG1","OBJECT_ID":"2023-091AH","EPOCH":"2026-03-09T22:32:06.495648","MEAN_MOTION":15.33422293,"ECCENTRICITY":0.00088895,"INCLINATION":97.5184,"RA_OF_ASC_NODE":136.6191,"ARG_OF_PERICENTER":78.3219,"MEAN_ANOMALY":281.902,"EPHEMERIS_TYPE":0,"CLASSIFICATION_TYPE":"U","NORAD_CAT_ID":57197,"ELEMENT_SET_NO":999,"REV_AT_EPOCH":14948,"BSTAR":0.0007038551,"MEAN_MOTION_DOT":0.00022724,"MEAN_MOTION_DDOT":0},{"OBJECT_NAME":"STARLINK-33747","OBJECT_ID":"2025-069M","EPOCH":"2026-03-09T11:25:30.878112","MEAN_MOTION":15.30202464,"ECCENTRICITY":0.00013025,"INCLINATION":53.1586,"RA_OF_ASC_NODE":143.3523,"ARG_OF_PERICENTER":87.4041,"MEAN_ANOMALY":272.7109,"EPHEMERIS_TYPE":0,"CLASSIFICATION_TYPE":"U","NORAD_CAT_ID":63444,"ELEMENT_SET_NO":999,"REV_AT_EPOCH":5332,"BSTAR":0.00089821112,"MEAN_MOTION_DOT":0.0002634,"MEAN_MOTION_DDOT":0}]
